OBJECT_NAME,OBJECT_ID,EPOCH,MEAN_MOTION,ECCENTRICITY,INCLINATION,RA_OF_ASC_NODE,ARG_OF_PERICENTER,MEAN_ANOMALY,EPHEMERIS_TYPE,CLASSIFICATION_TYPE,NORAD_CAT_ID,ELEMENT_SET_NO,REV_AT_EPOCH,BSTAR,MEAN_MOTION_DOT,MEAN_MOTION_DDOT
HAWK-6B,2023-011A,2026-07-12T11:50:52.794240,15.23138816,.00037942,40.4967,204.4428,226.2355,133.8140,0,U,55324,999,19170,.11181159E-3,.25E-4,0
HAWK-6C,2023-011C,2026-07-12T10:15:33.617088,15.23140487,.00042909,40.4959,201.6644,217.2820,142.7692,0,U,55326,999,19170,.1165287E-3,.2614E-4,0
HAWK-6A,2023-011D,2026-07-13T00:25:21.599904,15.23143432,.0003907,40.4967,199.8481,218.5317,141.5214,0,U,55327,999,19179,.12143E-3,.2733E-4,0
HAWK-7A,2023-054P,2026-07-12T22:06:09.393120,15.27618811,.0001656,97.2673,80.6044,345.5570,14.5622,0,U,56191,999,18095,.13264E-3,.3509E-4,0
HAWK-7B,2023-054R,2026-07-12T23:40:22.762848,15.27616354,.0001587,97.2698,78.9411,20.8733,339.2571,0,U,56193,999,18096,.1222E-3,.3227E-4,0
HAWK-7C,2023-054Y,2026-07-13T01:14:31.942176,15.27620878,.0001126,97.2677,79.7659,4.3519,355.7730,0,U,56200,999,18097,.13099E-3,.3465E-4,0
