HAWK-6B                 
1 55324U 23011A   26193.49366660  .00002500  00000+0  11181-3 0  9998
2 55324  40.4967 204.4428 0003794 226.2355 133.8140 15.23138816191709
HAWK-6C                 
1 55326U 23011C   26193.42747242  .00002614  00000+0  11653-3 0  9992
2 55326  40.4959 201.6644 0004290 217.2820 142.7692 15.23140487191708
HAWK-6A                 
1 55327U 23011D   26194.01761111  .00002733  00000+0  12143-3 0  9997
2 55327  40.4967 199.8481 0003907 218.5317 141.5214 15.23143432191793
HAWK-7A                 
1 56191U 23054P   26193.92094205  .00003509  00000+0  13264-3 0  9993
2 56191  97.2673  80.6044 0001656 345.5570  14.5622 15.27618811180950
HAWK-7B                 
1 56193U 23054R   26193.98637457  .00003227  00000+0  12220-3 0  9991
2 56193  97.2698  78.9411 0001587  20.8733 339.2571 15.27616354180965
HAWK-7C                 
1 56200U 23054Y   26194.05175859  .00003465  00000+0  13099-3 0  9991
2 56200  97.2677  79.7659 0001126   4.3519 355.7730 15.27620878180979
